ORBCOMM FM21 [+]        
1 25475U 98053A   17345.90234394  .00000020  00000-0  58456-4 0  9996
2 25475  45.0093 229.5739 0001807 356.2732   3.8101 14.32626961  3407
